STARLINK-35446          
1 66432U 25259L   25329.50006943  .00099437  00000+0  64436-3 0  9999
2 66432  42.9998 148.9437 0001843 253.0687 179.7422 15.74984158  3509
STARLINK-35457          
1 66433U 25259M   25329.50006943  .00114876  00000+0  74246-3 0  9995
2 66433  42.9995 148.9404 0001603 276.6452 158.0781 15.74987509  3507
STARLINK-35389          
1 66434U 25259N   25329.50006943  .00064371  00000+0  41954-3 0  9990
2 66434  42.9994 148.9353 0002000 273.0472 163.5961 15.75006714  3507
STARLINK-35502          
1 66435U 25259P   25329.50006943  .00093355  00000+0  60519-3 0  9993
2 66435  42.9993 148.9312 0002315 258.1009 180.4601 15.74997469  3505
STARLINK-35501          
1 66436U 25259Q   25329.50006943  .00176881  00000+0  11342-2 0  9999
2 66436  42.9995 148.9207 0002078 242.0695 200.3277 15.74965479  3507
STARLINK-35474          
1 66437U 25259R   25329.50006943  .00119313  00000+0  77102-3 0  9994
2 66437  42.9998 148.9163 0001686 269.5851 174.7341 15.74975104  3506
STARLINK-34681          
1 66438U 25259S   25329.50006943  .00114524  00000+0  74019-3 0  9998
2 66438  42.9997 148.9113 0002004 256.7011 189.5395 15.74987814  3405
STARLINK-35327          
1 66439U 25259T   25329.50006943  .00115579  00000+0  74698-3 0  9993
2 66439  42.9999 148.9279 0002129 253.3686 187.1095 15.74984659  3506
STARLINK-35405          
1 66440U 25259U   25329.50006943  .00118529  00000+0  76618-3 0  9997
2 66440  42.9994 148.9076 0001612 277.3376 170.8190 15.74971331  3504
STARLINK-35426          
1 66441U 25259V   25329.50006943  .00107695  00000+0  69688-3 0  9999
2 66441  42.9996 148.9020 0001654 267.8062 182.2638 15.74985962  3507
STARLINK-34724          
1 66442U 25259W   25329.50006943  .00136183  00000+0  87743-3 0  9996
2 66442  42.9994 148.8973 0001649 266.6673 185.3248 15.74985888  3509
STARLINK-35219          
1 66443U 25259X   25329.50006943  .00169119  00000+0  10855-2 0  9991
2 66443  42.9994 148.8927 0001728 264.0760 189.8254 15.74967234  3406
STARLINK-35360          
1 66444U 25259Y   25329.50006943  .00179803  00000+0  11527-2 0  9990
2 66444  42.9995 148.8771 0001563 271.1293 188.5287 15.74961741  3502
STARLINK-34698          
1 66445U 25259Z   25329.50006943  .00100503  00000+0  65091-3 0  9998
2 66445  42.9995 148.8871 0001614 272.1485 183.6785 15.74992768  3406
STARLINK-34986          
1 66446U 25259AA  25329.50006943  .00085855  00000+0  55728-3 0  9997
2 66446  42.9996 148.8820 0001750 269.3740 188.3670 15.74999923  3501
STARLINK-34851          
1 66447U 25259AB  25329.50006943  .00108499  00000+0  70218-3 0  9999
2 66447  42.9995 148.8726 0001755 252.0019 209.5692 15.74979728  3409
STARLINK-35355          
1 66448U 25259AC  25329.50006943  .00133129  00000+0  85847-3 0  9992
2 66448  42.9996 148.8680 0001712 263.8907 199.5993 15.74976748  3501
STARLINK-34720          
1 66449U 25259AD  25329.50006943  .00062905  00000+0  40999-3 0  9995
2 66449  42.9996 148.8627 0001836 267.5594 197.8444 15.75014882  3407
STARLINK-35334          
1 66450U 25259AE  25329.50006943  .00139487  00000+0  89871-3 0  9999
2 66450  42.9997 148.8572 0001642 283.4802 183.8444 15.74975241  3503
VIASAT-3 F2             
1 66454U 25261A   25328.78667826 -.00000057  00000+0  00000+0 0  9992
2 66454   5.5881 294.0676 2339977 182.3088 163.5235  2.28339319   238
ATLAS 5 CENTAUR R/B     
1 66455U 25261B   25328.48841670 -.00000059  00000+0  00000+0 0  9993
2 66455   6.1705 293.4428 2329951 182.8133 267.0678  2.28256781   238
STARLINK-35643          
1 66456U 25262A   25328.83337963 -.01184257  00000+0 -45333-2 0  9995
2 66456  42.9979 177.9125 0001723 273.4700 325.4884 15.89189658  2766
STARLINK-35466          
1 66457U 25262B   25328.83337963 -.01223114  00000+0 -45851-2 0  9997
2 66457  42.9979 177.9000 0001635 275.5842 328.3172 15.89258815  2765
STARLINK-35684          
1 66458U 25262C   25328.83337963 -.01215288  00000+0 -45600-2 0  9993
2 66458  42.9982 177.9068 0001650 273.5235 327.7270 15.89225201  2760
STARLINK-35449          
1 66459U 25262D   25328.83337963 -.01226444  00000+0 -45893-2 0  9994
2 66459  42.9978 177.8929 0001728 273.5467 333.0972 15.89299272  2762
STARLINK-35424          
1 66460U 25262E   25328.83337963 -.01251399  00000+0 -46876-2 0  9995
2 66460  42.9981 177.8855 0001664 270.1851 339.4417 15.89328614  2762
STARLINK-35132          
1 66461U 25262F   25328.83337963 -.01253730  00000+0 -46902-2 0  9997
2 66461  42.9980 177.8787 0001684 270.0589 342.3043 15.89358584  2762
STARLINK-35499          
1 66462U 25262G   25328.83337963 -.01252518  00000+0 -46776-2 0  9990
2 66462  42.9979 177.8731 0001682 273.5873 340.8539 15.89390021  2767
STARLINK-35463          
1 66463U 25262H   25328.83337963 -.01255392  00000+0 -46736-2 0  9990
2 66463  42.9981 177.8606 0001722 272.7346 346.6015 15.89456524  2767
STARLINK-35435          
1 66464U 25262J   25328.83337963 -.01251117  00000+0 -46645-2 0  9991
2 66464  42.9978 177.8661 0001703 270.3541 346.8775 15.89420008  2768
STARLINK-35448          
1 66465U 25262K   25328.83337963 -.01300099  00000+0 -48598-2 0  9995
2 66465  42.9979 177.8333 0001673 274.0111 356.0257 15.89466170  2764
STARLINK-35388          
1 66466U 25262L   25328.83337963 -.01326206  00000+0 -49584-2 0  9990
2 66466  42.9977 177.8258 0001702 267.1471   5.9542 15.89513921  2768
STARLINK-35682          
1 66467U 25262M   25328.83337963 -.01291035  00000+0 -48308-2 0  9995
2 66467  42.9979 177.8400 0001632 272.9268 354.5418 15.89428794  2768
STARLINK-35331          
1 66468U 25262N   25328.83337963 -.01336778  00000+0 -49929-2 0  9990
2 66468  42.9981 177.8206 0001777 271.2621   3.9036 15.89553721  2761
STARLINK-35451          
1 66469U 25262P   25328.83337963 -.01459223  00000+0 -54774-2 0  9996
2 66469  42.9978 177.8020 0001715 269.1302  13.2668 15.89707770  2766
STARLINK-35655          
1 66470U 25262Q   25328.83337963 -.01365592  00000+0 -51040-2 0  9996
2 66470  42.9980 177.8145 0001722 272.9932   4.6927 15.89599347  2769
STARLINK-35569          
1 66471U 25262R   25328.83337963 -.01423943  00000+0 -53377-2 0  9997
2 66471  42.9983 177.8083 0001700 268.8362  11.3647 15.89661584  2768
STARLINK-35567          
1 66472U 25262S   25328.83337963 -.01493294  00000+0 -56154-2 0  9990
2 66472  42.9980 177.7960 0001734 270.1240  14.9622 15.89743551  2764
STARLINK-35568          
1 66473U 25262T   25328.83337963 -.01509468  00000+0 -56791-2 0  9999
2 66473  42.9980 177.7892 0001733 271.1645  16.4413 15.89767771  2763
STARLINK-35620          
1 66474U 25262U   25328.83337963 -.01513275  00000+0 -56899-2 0  9990
2 66474  42.9980 177.7837 0001689 269.4035  20.4189 15.89788365  2763
STARLINK-35538          
1 66475U 25262V   25328.83337963 -.01568065  00000+0 -57761-2 0  9997
2 66475  42.9981 177.7776 0001723 270.8220  21.4359 15.89816112  2760
STARLINK-35372          
1 66476U 25262W   25328.83337963 -.01561317  00000+0 -57437-2 0  9991
2 66476  42.9981 177.7718 0001762 270.1288  24.4104 15.89829659  2656
STARLINK-35354          
1 66477U 25262X   25328.83337963 -.01589241  00000+0 -58516-2 0  9997
2 66477  42.9983 177.7582 0001789 268.9771  31.0220 15.89859559  2766
STARLINK-35283          
1 66478U 25262Y   25328.83337963 -.01583447  00000+0 -58250-2 0  9995
2 66478  42.9981 177.7509 0001738 269.8327  32.7924 15.89867893  2764
STARLINK-35581          
1 66479U 25262Z   25328.83337963 -.01564264  00000+0 -57533-2 0  9995
2 66479  42.9979 177.7648 0001726 267.3298  29.9430 15.89839499  2764
STARLINK-35670          
1 66480U 25262AA  25328.83337963 -.01606396  00000+0 -59104-2 0  9996
2 66480  42.9981 177.7451 0001792 269.6541  35.1978 15.89903144  2765
STARLINK-35698          
1 66481U 25262AB  25328.83337963 -.01591345  00000+0 -58458-2 0  9995
2 66481  42.9980 177.7385 0001827 266.3539  41.0596 15.89907780  2763
STARLINK-35648          
1 66482U 25262AC  25328.83337963 -.01615923  00000+0 -59406-2 0  9999
2 66482  42.9980 177.7324 0001732 269.5017  40.4713 15.89936152  2600
STARLINK-35654          
1 66483U 25262AD  25328.83337963 -.01630151  00000+0 -59918-2 0  9998
2 66483  42.9976 177.7259 0001759 266.3763  46.0113 15.89963522  2769
STARLINK-35371          
1 66484U 25262AE  25328.83337963 -.01633600  00000+0 -60011-2 0  9997
2 66484  42.9979 177.7193 0001810 269.8677  45.1392 15.89979749  2767
STARLINK-34774          
1 66485U 25263A   25329.50006943 -.01330618  50890-3 -38965-2 0  9997
2 66485  42.9988 228.6219 0001987 269.3175 158.6930 15.91893604  2863
STARLINK-34844          
1 66486U 25263B   25329.50006943 -.01333286  51087-3 -38999-2 0  9998
2 66486  42.9984 228.6097 0001980 268.8330 163.8320 15.91915729  2813
STARLINK-34733          
1 66487U 25263C   25325.66672454 -.01097858  39241-3 -19623-2 0  9991
2 66487  43.0009 252.6020 0002094 261.1959  74.1218 16.00846071  2248
STARLINK-35515          
1 66488U 25263D   25329.50006943 -.01263812  46328-3 -36913-2 0  9993
2 66488  42.9986 228.5960 0001857 268.3782 169.7459 15.91932702  2867
STARLINK-35696          
1 66489U 25263E   25329.50006943 -.01361142  53130-3 -39539-2 0  9995
2 66489  42.9985 228.5897 0001911 269.1132 171.4905 15.92053380  2868
STARLINK-35693          
1 66490U 25263F   25329.50006943 -.01368672  53694-3 -39659-2 0  9990
2 66490  42.9986 228.5819 0002023 267.7522 175.8939 15.92101756  2863
STARLINK-35663          
1 66491U 25263G   25329.50006943 -.01391183  55374-3 -40123-2 0  9999
2 66491  42.9986 228.5707 0002002 265.9394 182.1347 15.92195493  2869
STARLINK-35673          
1 66492U 25263H   25329.50006943 -.01390975  55380-3 -40032-2 0  9994
2 66492  42.9986 228.5648 0001985 267.7084 182.7081 15.92236190  2860
STARLINK-35597          
1 66493U 25263J   25329.50006943 -.01393097  55560-3 -39996-2 0  9990
2 66493  42.9986 228.5576 0001892 266.6325 186.5989 15.92282974  2864
